start=new Date('2022-04-21T00:00:00.000Z').valueOf();
sats=[{"SEMIMAJOR_AXIS":"6925.331","OBJECT_ID":"2021-009AY","SITE":"AFETR","RCS_SIZE":"LARGE","MEAN_MOTION_DOT":"0.00001317","GP_ID":"201713221","REV_AT_EPOCH":"6662","ARG_OF_PERICENTER":"63.6192","RA_OF_ASC_NODE":"292.0862","MEAN_ANOMALY":"296.4979","INCLINATION":"53.0540","EPHEMERIS_TYPE":"0","FILE":"3409979","PERIOD":"95.592","NORAD_CAT_ID":"47594","ECCENTRICITY":"0.00017750","BSTAR":"0.00010730000000","DECAY_DATE":null,"APOAPSIS":"548.425","REF_FRAME":"TEME","TLE_LINE1":"1 47594U 21009AY  22110.61878654  .00001317  00000-0  10730-3 0  9998","OBJECT_TYPE":"PAYLOAD","LAUNCH_DATE":"2021-02-04","CENTER_NAME":"EARTH","MEAN_MOTION":"15.06405784","MEAN_ELEMENT_THEORY":"SGP4","PERIAPSIS":"545.967","COUNTRY_CODE":"US","CLASSIFICATION_TYPE":"U","OBJECT_NAME":"STARLINK-1999","TLE_LINE2":"2 47594  53.0540 292.0862 0001775  63.6192 296.4979 15.06405784 66620","TIME_SYSTEM":"UTC","EPOCH":"2022-04-20T14:51:03.157056","ELEMENT_SET_NO":"999","MEAN_MOTION_DDOT":"0.0000000000000"},{"ARG_OF_PERICENTER":"64.3934","REV_AT_EPOCH":"6666","INCLINATION":"53.0535","MEAN_ANOMALY":"295.7206","RA_OF_ASC_NODE":"290.9594","OBJECT_ID":"2021-009AZ","SEMIMAJOR_AXIS":"6925.358","RCS_SIZE":"LARGE","SITE":"AFETR","MEAN_MOTION_DOT":"-0.00001104","GP_ID":"201714473","ECCENTRICITY":"0.00014690","BSTAR":"-0.00005522300000","EPHEMERIS_TYPE":"0","PERIOD":"95.592","FILE":"3409979","NORAD_CAT_ID":"47595","OBJECT_TYPE":"PAYLOAD","CENTER_NAME":"EARTH","LAUNCH_DATE":"2021-02-04","MEAN_MOTION":"15.06396882","REF_FRAME":"TEME","APOAPSIS":"548.240","DECAY_DATE":null,"TLE_LINE1":"1 47595U 21009AZ  22110.86943595 -.00001104  00000-0 -55223-4 0  9996","ELEMENT_SET_NO":"999","TIME_SYSTEM":"UTC","EPOCH":"2022-04-20T20:51:59.266080","MEAN_MOTION_DDOT":"0.0000000000000","MEAN_ELEMENT_THEORY":"SGP4","COUNTRY_CODE":"US","CLASSIFICATION_TYPE":"U","PERIAPSIS":"546.206","TLE_LINE2":"2 47595  53.0535 290.9594 0001469  64.3934 295.7206 15.06396882 66663","OBJECT_NAME":"STARLINK-2000"},{"TLE_LINE2":"2 47596  53.0538 293.9150 0001624  55.2689 304.8453 15.06402884 67169","OBJECT_NAME":"STARLINK-2001","COUNTRY_CODE":"US","CLASSIFICATION_TYPE":"U","PERIAPSIS":"546.080","MEAN_ELEMENT_THEORY":"SGP4","MEAN_MOTION_DDOT":"0.0000000000000","ELEMENT_SET_NO":"999","EPOCH":"2022-04-20T05:01:52.627296","TIME_SYSTEM":"UTC","TLE_LINE1":"1 47596U 21009BA  22110.20963689  .00001678  00000-0  13151-3 0  9998","APOAPSIS":"548.329","REF_FRAME":"TEME","DECAY_DATE":null,"MEAN_MOTION":"15.06402884","CENTER_NAME":"EARTH","LAUNCH_DATE":"2021-02-04","OBJECT_TYPE":"PAYLOAD","NORAD_CAT_ID":"47596","PERIOD":"95.592","FILE":"3409844","EPHEMERIS_TYPE":"0","BSTAR":"0.00013151000000","ECCENTRICITY":"0.00016240","GP_ID":"201689463","MEAN_MOTION_DOT":"0.00001678","SITE":"AFETR","RCS_SIZE":"LARGE","SEMIMAJOR_AXIS":"6925.340","OBJECT_ID":"2021-009BA","INCLINATION":"53.0538","MEAN_ANOMALY":"304.8453","RA_OF_ASC_NODE":"293.9150","ARG_OF_PERICENTER":"55.2689","REV_AT_EPOCH":"6716"},{"MEAN_MOTION":"15.06395102","OBJECT_TYPE":"PAYLOAD","LAUNCH_DATE":"2021-02-04","CENTER_NAME":"EARTH","TLE_LINE1":"1 47597U 21009BB  22110.86575142 -.00000692  00000-0 -27549-4 0  9998","DECAY_DATE":null,"REF_FRAME":"TEME","APOAPSIS":"548.138","MEAN_MOTION_DDOT":"0.0000000000000","EPOCH":"2022-04-20T20:46:40.922688","TIME_SYSTEM":"UTC","ELEMENT_SET_NO":"999","COUNTRY_CODE":"US","CLASSIFICATION_TYPE":"U","PERIAPSIS":"546.319","TLE_LINE2":"2 47597  53.0547 290.9717 0001313  70.7171 289.3960 15.06395102 66667","OBJECT_NAME":"STARLINK-2002","MEAN_ELEMENT_THEORY":"SGP4","RA_OF_ASC_NODE":"290.9717","MEAN_ANOMALY":"289.3960","INCLINATION":"53.0547","REV_AT_EPOCH":"6666","ARG_OF_PERICENTER":"70.7171","GP_ID":"201712971","SEMIMAJOR_AXIS":"6925.364","OBJECT_ID":"2021-009BB","RCS_SIZE":"LARGE","SITE":"AFETR","MEAN_MOTION_DOT":"-0.00000692","BSTAR":"-0.00002754900000","ECCENTRICITY":"0.00013130","PERIOD":"95.592","FILE":"3409979","NORAD_CAT_ID":"47597","EPHEMERIS_TYPE":"0"},{"MEAN_ELEMENT_THEORY":"SGP4","TLE_LINE2":"2 47598  53.0538 261.8239 0001658  64.4220 295.6940 15.06398783 67062","OBJECT_NAME":"STARLINK-2003","COUNTRY_CODE":"US","CLASSIFICATION_TYPE":"U","PERIAPSIS":"546.069","ELEMENT_SET_NO":"999","TIME_SYSTEM":"UTC","EPOCH":"2022-04-20T16:14:38.589792","MEAN_MOTION_DDOT":"0.0000000000000","APOAPSIS":"548.366","REF_FRAME":"TEME","DECAY_DATE":null,"TLE_LINE1":"1 47598U 21009BC  22110.67683553 -.00000146  00000-0  90939-5 0  9991","CENTER_NAME":"EARTH","LAUNCH_DATE":"2021-02-04","OBJECT_TYPE":"PAYLOAD","MEAN_MOTION":"15.06398783","EPHEMERIS_TYPE":"0","NORAD_CAT_ID":"47598","FILE":"3409979","PERIOD":"95.592","ECCENTRICITY":"0.00016580","BSTAR":"0.00000909390000","SITE":"AFETR","RCS_SIZE":"LARGE","MEAN_MOTION_DOT":"-0.00000146","OBJECT_ID":"2021-009BC","SEMIMAJOR_AXIS":"6925.352","GP_ID":"201713722","ARG_OF_PERICENTER":"64.4220","REV_AT_EPOCH":"6706","INCLINATION":"53.0538","MEAN_ANOMALY":"295.6940","RA_OF_ASC_NODE":"261.8239"},{"MEAN_MOTION":"15.06402640","OBJECT_TYPE":"PAYLOAD","CENTER_NAME":"EARTH","LAUNCH_DATE":"2021-02-04","TLE_LINE1":"1 47599U 21009BD  22110.79939328 -.00000045  00000-0  15873-4 0  9990","APOAPSIS":"548.491","REF_FRAME":"TEME","DECAY_DATE":null,"MEAN_MOTION_DDOT":"0.0000000000000","ELEMENT_SET_NO":"999","EPOCH":"2022-04-20T19:11:07.579392","TIME_SYSTEM":"UTC","PERIAPSIS":"545.920","COUNTRY_CODE":"US","CLASSIFICATION_TYPE":"U","TLE_LINE2":"2 47599  53.0558 251.2712 0001856  66.0865 294.0318 15.06402640 67214","OBJECT_NAME":"STARLINK-2004","MEAN_ELEMENT_THEORY":"SGP4","INCLINATION":"53.0558","MEAN_ANOMALY":"294.0318","RA_OF_ASC_NODE":"251.2712","ARG_OF_PERICENTER":"66.0865","REV_AT_EPOCH":"6721","GP_ID":"201713973","OBJECT_ID":"2021-009BD","SEMIMAJOR_AXIS":"6925.340","SITE":"AFETR","MEAN_MOTION_DOT":"-0.00000045","RCS_SIZE":"LARGE","BSTAR":"0.00001587300000","ECCENTRICITY":"0.00018560","PERIOD":"95.592","FILE":"3409979","NORAD_CAT_ID":"47599","EPHEMERIS_TYPE":"0"},{"PERIOD":"95.592","FILE":"3409979","NORAD_CAT_ID":"47600","EPHEMERIS_TYPE":"0","BSTAR":"-0.00003774400000","ECCENTRICITY":"0.00014660","GP_ID":"201714724","SEMIMAJOR_AXIS":"6925.352","OBJECT_ID":"2021-009BE","RCS_SIZE":"LARGE","SITE":"AFETR","MEAN_MOTION_DOT":"-0.00000844","INCLINATION":"53.0534","MEAN_ANOMALY":"289.0927","RA_OF_ASC_NODE":"251.7421","ARG_OF_PERICENTER":"71.0221","REV_AT_EPOCH":"6720","COUNTRY_CODE":"US","CLASSIFICATION_TYPE":"U","PERIAPSIS":"546.202","TLE_LINE2":"2 47600  53.0534 251.7421 0001466  71.0221 289.0927 15.06398896 67208","OBJECT_NAME":"STARLINK-2005","MEAN_ELEMENT_THEORY":"SGP4","MEAN_MOTION_DDOT":"0.0000000000000","ELEMENT_SET_NO":"999","EPOCH":"2022-04-20T16:41:08.302272","TIME_SYSTEM":"UTC","TLE_LINE1":"1 47600U 21009BE  22110.69523498 -.00000844  00000-0 -37744-4 0  9998","REF_FRAME":"TEME","APOAPSIS":"548.232","DECAY_DATE":null,"MEAN_MOTION":"15.06398896","OBJECT_TYPE":"PAYLOAD","CENTER_NAME":"EARTH","LAUNCH_DATE":"2021-02-04"},{"PERIAPSIS":"546.063","COUNTRY_CODE":"US","CLASSIFICATION_TYPE":"U","OBJECT_NAME":"STARLINK-2006","TLE_LINE2":"2 47601  53.0540 250.9618 0001676  60.5068 299.6088 15.06396609 67227","MEAN_ELEMENT_THEORY":"SGP4","MEAN_MOTION_DDOT":"0.0000000000000","ELEMENT_SET_NO":"999","EPOCH":"2022-04-20T20:51:58.262112","TIME_SYSTEM":"UTC","TLE_LINE1":"1 47601U 21009BF  22110.86942433 -.00001567  00000-0 -86343-4 0  9994","APOAPSIS":"548.385","REF_FRAME":"TEME","DECAY_DATE":null,"MEAN_MOTION":"15.06396609","OBJECT_TYPE":"PAYLOAD","CENTER_NAME":"EARTH","LAUNCH_DATE":"2021-02-04","FILE":"3409979","PERIOD":"95.592","NORAD_CAT_ID":"47601","EPHEMERIS_TYPE":"0","BSTAR":"-0.00008634300000","ECCENTRICITY":"0.00016760","GP_ID":"201713472","OBJECT_ID":"2021-009BF","SEMIMAJOR_AXIS":"6925.359","SITE":"AFETR","RCS_SIZE":"LARGE","MEAN_MOTION_DOT":"-0.00001567","INCLINATION":"53.0540","MEAN_ANOMALY":"299.6088","RA_OF_ASC_NODE":"250.9618","ARG_OF_PERICENTER":"60.5068","REV_AT_EPOCH":"6722"},{"MEAN_MOTION_DDOT":"0.0000000000000","ELEMENT_SET_NO":"999","TIME_SYSTEM":"UTC","EPOCH":"2022-04-20T19:46:57.446400","TLE_LINE2":"2 47602  53.0564 261.1552 0001548  49.9019 310.2106 15.06400866 67075","OBJECT_NAME":"STARLINK-2007","PERIAPSIS":"546.139","COUNTRY_CODE":"US","CLASSIFICATION_TYPE":"U","MEAN_ELEMENT_THEORY":"SGP4","MEAN_MOTION":"15.06400866","CENTER_NAME":"EARTH","LAUNCH_DATE":"2021-02-04","OBJECT_TYPE":"PAYLOAD","TLE_LINE1":"1 47602U 21009BG  22110.82427600 -.00002222  00000-0 -13029-3 0  9994","REF_FRAME":"TEME","APOAPSIS":"548.283","DECAY_DATE":null,"BSTAR":"-0.00013029000000","ECCENTRICITY":"0.00015480","NORAD_CAT_ID":"47602","PERIOD":"95.592","FILE":"3409979","EPHEMERIS_TYPE":"0","INCLINATION":"53.0564","MEAN_ANOMALY":"310.2106","RA_OF_ASC_NODE":"261.1552","ARG_OF_PERICENTER":"49.9019","REV_AT_EPOCH":"6707","GP_ID":"201713222","RCS_SIZE":"LARGE","SITE":"AFETR","MEAN_MOTION_DOT":"-0.00002222","OBJECT_ID":"2021-009BG","SEMIMAJOR_AXIS":"6925.346"},{"TLE_LINE2":"2 47603  53.0549 291.3948 0001706  46.2619 313.8511 15.06410839 66647","OBJECT_NAME":"STARLINK-2008","COUNTRY_CODE":"US","PERIAPSIS":"545.999","CLASSIFICATION_TYPE":"U","MEAN_ELEMENT_THEORY":"SGP4","MEAN_MOTION_DDOT":"0.0000000000000","ELEMENT_SET_NO":"999","TIME_SYSTEM":"UTC","EPOCH":"2022-04-20T18:28:40.351008","TLE_LINE1":"1 47603U 21009BH  22110.76991147  .00003719  00000-0  26837-3 0  9991","REF_FRAME":"TEME","APOAPSIS":"548.362","DECAY_DATE":null,"MEAN_MOTION":"15.06410839","CENTER_NAME":"EARTH","LAUNCH_DATE":"2021-02-04","OBJECT_TYPE":"PAYLOAD","NORAD_CAT_ID":"47603","FILE":"3409979","PERIOD":"95.591","EPHEMERIS_TYPE":"0","BSTAR":"0.00026837000000","ECCENTRICITY":"0.00017060","GP_ID":"201714474","SITE":"AFETR","MEAN_MOTION_DOT":"0.00003719","RCS_SIZE":"LARGE","SEMIMAJOR_AXIS":"6925.315","OBJECT_ID":"2021-009BH","INCLINATION":"53.0549","MEAN_ANOMALY":"313.8511","RA_OF_ASC_NODE":"291.3948","ARG_OF_PERICENTER":"46.2619","REV_AT_EPOCH":"6664"}];
